CTC2_L_00449016-03
1 10062U 25579HU  26075.70046296  .00000000  00000+0  00000-0 0  9990
2 10062  55.0000 180.0000 0000000   0.0000   0.0000 15.90815360    19
CTC2_L_00449016-04
1 10063U 24391E   26075.70046296  .00000000  00000+0  00000-0 0  9992
2 10063  55.0000 180.0000 0000000   0.0000  90.0000 15.90815360    19
CTC2_L_00449017-01
1 10064U 26994S   26075.70046296  .00000000  00000+0  00000-0 0  9994
2 10064  55.0000 192.0000 0000000   0.0000 192.0000 15.90815360    16
CTC2_L_00449017-02
1 10065U 24293ET  26075.70046296  .00000000  00000+0  00000-0 0  9995
2 10065  55.0000 192.0000 0000000   0.0000 282.0000 15.90815360    17
CTC2_L_00449017-03
1 10066U 23162OH  26075.70046296  .00000000  00000+0  00000-0 0  9990
2 10066  55.0000 192.0000 0000000   0.0000  12.0000 15.90815360    19
CTC2_L_00449017-04
1 10067U 24548KS  26075.70046296  .00000000  00000+0  00000-0 0  9990
2 10067  55.0000 192.0000 0000000   0.0000 102.0000 15.90815360    10
CTC2_L_00449018-01
1 10068U 25380YE  26075.70046296  .00000000  00000+0  00000-0 0  9996
2 10068  55.0000 204.0000 0000000   0.0000 204.0000 15.90815360    18
CTC2_L_00449018-02
1 10069U 24783SP  26075.70046296  .00000000  00000+0  00000-0 0  9993
2 10069  55.0000 204.0000 0000000   0.0000 294.0000 15.90815360    18
CTC2_L_00449018-03
1 10070U 24032YS  26075.70046296  .00000000  00000+0  00000-0 0  9992
2 10070  55.0000 204.0000 0000000   0.0000  24.0000 15.90815360    11
CTC2_L_00449018-04
1 10071U 25945WM  26075.70046296  .00000000  00000+0  00000-0 0  9997
2 10071  55.0000 204.0000 0000000   0.0000 114.0000 15.90815360    12
CTC2_L_00449019-01
1 10072U 25912GL  26075.70046296  .00000000  00000+0  00000-0 0  9992
2 10072  55.0000 216.0000 0000000   0.0000 216.0000 15.90815360    19
CTC2_L_00449019-02
1 10073U 23223T   26075.70046296  .00000000  00000+0  00000-0 0  9996
2 10073  55.0000 216.0000 0000000   0.0000 306.0000 15.90815360    10
CTC2_L_00449019-03
1 10074U 23989BN  26075.70046296  .00000000  00000+0  00000-0 0  9996
2 10074  55.0000 216.0000 0000000   0.0000  36.0000 15.90815360    11
CTC2_L_00449019-04
1 10075U 22480VC  26075.70046296  .00000000  00000+0  00000-0 0  9992
2 10075  55.0000 216.0000 0000000   0.0000 126.0000 15.90815360    12
CTC2_L_00449020-01
1 10076U 25752I   26075.70046296  .00000000  00000+0  00000-0 0  9998
2 10076  55.0000 228.0000 0000000   0.0000 228.0000 15.90815360    19
CTC2_L_00449020-02
1 10077U 26425SO  26075.70046296  .00000000  00000+0  00000-0 0  9997
2 10077  55.0000 228.0000 0000000   0.0000 318.0000 15.90815360    10
CTC2_L_00449020-03
1 10078U 26687LK  26075.70046296  .00000000  00000+0  00000-0 0  9998
2 10078  55.0000 228.0000 0000000   0.0000  48.0000 15.90815360    11
CTC2_L_00449020-04
1 10079U 26240OF  26075.70046296  .00000000  00000+0  00000-0 0  9994
2 10079  55.0000 228.0000 0000000   0.0000 138.0000 15.90815360    12
CTC2_L_00449021-01
1 10080U 22592DX  26075.70046296  .00000000  00000+0  00000-0 0  9992
2 10080  55.0000 240.0000 0000000   0.0000 240.0000 15.90815360    12
CTC2_L_00449021-02
1 10081U 24492BX  26075.70046296  .00000000  00000+0  00000-0 0  9994
2 10081  55.0000 240.0000 0000000   0.0000 330.0000 15.90815360    13
CTC2_L_00449021-03
1 10082U 26660Z   26075.70046296  .00000000  00000+0  00000-0 0  9994
2 10082  55.0000 240.0000 0000000   0.0000  60.0000 15.90815360    14
CTC2_L_00449021-04
1 10083U 22937KI  26075.70046296  .00000000  00000+0  00000-0 0  9998
2 10083  55.0000 240.0000 0000000   0.0000 150.0000 15.90815360    15
CTC2_L_00449022-01
1 10084U 24111PO  26075.70046296  .00000000  00000+0  00000-0 0  9995
2 10084  55.0000 252.0000 0000000   0.0000 252.0000 15.90815360    12
CTC2_L_00449022-02
1 10085U 22284KZ  26075.70046296  .00000000  00000+0  00000-0 0  9995
2 10085  55.0000 252.0000 0000000   0.0000 342.0000 15.90815360    13
CTC2_L_00449022-03
1 10086U 22871QU  26075.70046296  .00000000  00000+0  00000-0 0  9998
2 10086  55.0000 252.0000 0000000   0.0000  72.0000 15.90815360    14
CTC2_L_00449022-04
1 10087U 24188DT  26075.70046296  .00000000  00000+0  00000-0 0  9992
2 10087  55.0000 252.0000 0000000   0.0000 162.0000 15.90815360    15
CTC2_L_00449023-01
1 10088U 24415AS  26075.70046296  .00000000  00000+0  00000-0 0  9996
2 10088  55.0000 264.0000 0000000   0.0000 264.0000 15.90815360    12
CTC2_L_00449023-02
1 10089U 26915JU  26075.70046296  .00000000  00000+0  00000-0 0  9994
2 10089  55.0000 264.0000 0000000   0.0000 354.0000 15.90815360    13
CTC2_L_00449023-03
1 10090U 25082BB  26075.70046296  .00000000  00000+0  00000-0 0  9990
2 10090  55.0000 264.0000 0000000   0.0000  84.0000 15.90815360    15
CTC2_L_00449023-04
1 10091U 26833PC  26075.70046296  .00000000  00000+0  00000-0 0  9996
2 10091  55.0000 264.0000 0000000   0.0000 174.0000 15.90815360    16
CTC2_L_00449024-01
1 10092U 23118EU  26075.70046296  .00000000  00000+0  00000-0 0  9990
2 10092  55.0000 276.0000 0000000   0.0000 276.0000 15.90815360    13
CTC2_L_00449024-02
1 10093U 23319TA  26075.70046296  .00000000  00000+0  00000-0 0  9994
2 10093  55.0000 276.0000 0000000   0.0000   6.0000 15.90815360    15
CTC2_L_00449024-03
1 10094U 23849FU  26075.70046296  .00000000  00000+0  00000-0 0  9993
2 10094  55.0000 276.0000 0000000   0.0000  96.0000 15.90815360    15
CTC2_L_00449024-04
1 10095U 26043DF  26075.70046296  .00000000  00000+0  00000-0 0  9993
2 10095  55.0000 276.0000 0000000   0.0000 186.0000 15.90815360    16
CTC2_L_00449025-01
1 10096U 26581XJ  26075.70046296  .00000000  00000+0  00000-0 0  9991
2 10096  55.0000 288.0000 0000000   0.0000 288.0000 15.90815360    13
CTC2_L_00449025-02
1 10097U 25387HW  26075.70046296  .00000000  00000+0  00000-0 0  9995
2 10097  55.0000 288.0000 0000000   0.0000  18.0000 15.90815360    15
CTC2_L_00449025-03
1 10098U 22214HM  26075.70046296  .00000000  00000+0  00000-0 0  9992
2 10098  55.0000 288.0000 0000000   0.0000 108.0000 15.90815360    16
CTC2_L_00449025-04
1 10099U 26965VW  26075.70046296  .00000000  00000+0  00000-0 0  9990
2 10099  55.0000 288.0000 0000000   0.0000 198.0000 15.90815360    16
CTC2_L_00449026-01
1 10100U 23528VQ  26075.70046296  .00000000  00000+0  00000-0 0  9995
2 10100  55.0000 300.0000 0000000   0.0000 300.0000 15.90815360    19
CTC2_L_00449026-02
1 10101U 22065DF  26075.70046296  .00000000  00000+0  00000-0 0  9991
2 10101  55.0000 300.0000 0000000   0.0000  30.0000 15.90815360    10
CTC2_L_00449026-03
1 10102U 22413GN  26075.70046296  .00000000  00000+0  00000-0 0  9999
2 10102  55.0000 300.0000 0000000   0.0000 120.0000 15.90815360    11
CTC2_L_00449026-04
1 10103U 24864WQ  26075.70046296  .00000000  00000+0  00000-0 0  9992
2 10103  55.0000 300.0000 0000000   0.0000 210.0000 15.90815360    12
CTC2_L_00449027-01
1 10104U 23170FW  26075.70046296  .00000000  00000+0  00000-0 0  9992
2 10104  55.0000 312.0000 0000000   0.0000 312.0000 15.90815360    19
CTC2_L_00449027-02
1 10105U 26156VZ  26075.70046296  .00000000  00000+0  00000-0 0  9990
2 10105  55.0000 312.0000 0000000   0.0000  42.0000 15.90815360    10
CTC2_L_00449027-03
1 10106U 25108JZ  26075.70046296  .00000000  00000+0  00000-0 0  9997
2 10106  55.0000 312.0000 0000000   0.0000 132.0000 15.90815360    11
CTC2_L_00449027-04
1 10107U 22450SI  26075.70046296  .00000000  00000+0  00000-0 0  9995
2 10107  55.0000 312.0000 0000000   0.0000 222.0000 15.90815360    12
CTC2_L_00449028-01
1 10108U 22814IM  26075.70046296  .00000000  00000+0  00000-0 0  9990
2 10108  55.0000 324.0000 0000000   0.0000 324.0000 15.90815360    19
CTC2_L_00449028-02
1 10109U 24225WK  26075.70046296  .00000000  00000+0  00000-0 0  9999
2 10109  55.0000 324.0000 0000000   0.0000  54.0000 15.90815360    10
CTC2_L_00449028-03
1 10110U 23768UW  26075.70046296  .00000000  00000+0  00000-0 0  9992
2 10110  55.0000 324.0000 0000000   0.0000 144.0000 15.90815360    12
CTC2_L_00449028-04
1 10111U 25803SK  26075.70046296  .00000000  00000+0  00000-0 0  9995
2 10111  55.0000 324.0000 0000000   0.0000 234.0000 15.90815360    13
CTC2_L_00449029-01
1 10112U 23228SI  26075.70046296  .00000000  00000+0  00000-0 0  9995
2 10112  55.0000 336.0000 0000000   0.0000 336.0000 15.90815360    10
CTC2_L_00449029-02
1 10113U 26989LR  26075.70046296  .00000000  00000+0  00000-0 0  9993
2 10113  55.0000 336.0000 0000000   0.0000  66.0000 15.90815360    11
CTC2_L_00449029-03
1 10114U 25957FF  26075.70046296  .00000000  00000+0  00000-0 0  9998
2 10114  55.0000 336.0000 0000000   0.0000 156.0000 15.90815360    12
CTC2_L_00449029-04
1 10115U 25461IG  26075.70046296  .00000000  00000+0  00000-0 0  9999
2 10115  55.0000 336.0000 0000000   0.0000 246.0000 15.90815360    13
CTC2_L_00449030-01
1 10116U 25935CJ  26075.70046296  .00000000  00000+0  00000-0 0  9996
2 10116  55.0000 348.0000 0000000   0.0000 348.0000 15.90815360    10
CTC2_L_00449030-02
1 10117U 24182VC  26075.70046296  .00000000  00000+0  00000-0 0  9990
2 10117  55.0000 348.0000 0000000   0.0000  78.0000 15.90815360    11
CTC2_L_00449030-03
1 10118U 22105MP  26075.70046296  .00000000  00000+0  00000-0 0  9994
2 10118  55.0000 348.0000 0000000   0.0000 168.0000 15.90815360    12
CTC2_L_00449030-04
1 10119U 25347IH  26075.70046296  .00000000  00000+0  00000-0 0  9996
2 10119  55.0000 348.0000 0000000   0.0000 258.0000 15.90815360    13
